BEIDOU 3 (C01)          
1 36287U 10001A   21277.54315066 -.00000281  00000-0  00000+0 0  9998
2 36287   1.6641  40.9334 0002622  80.2446 228.2597  1.00274288 42941
BEIDOU 5 (C06)          
1 36828U 10036A   21276.88690068 -.00000144  00000-0  00000-0 0  9990
2 36828  54.1817 178.5930 0023223 181.0158  79.7423  1.00272177 41008
BEIDOU 6 (C04)          
1 37210U 10057A   21277.47529494 -.00000114  00000-0  00000+0 0  9995
2 37210   0.7324  37.1305 0004395 144.5110 162.7763  1.00273753 40067
BEIDOU 7 (C07)          
1 37256U 10068A   21276.96306284 -.00000164  00000-0  00000+0 0  9995
2 37256  50.6692 292.7099 0018185 189.1127 346.7195  1.00274893 39576
BEIDOU 8 (C08)          
1 37384U 11013A   21277.55566162 -.00000154  00000-0  00000+0 0  9996
2 37384  59.9287  56.8064 0018930 180.4409  82.5573  1.00277128 38451
BEIDOU 9 (C09)          
1 37763U 11038A   21276.88780410 -.00000099  00000-0  00000+0 0  9991
2 37763  54.4699 181.0539 0086603 226.8196  18.5445  1.00287678 37421
BEIDOU 10 (C10)         
1 37948U 11073A   21276.51160444 -.00000114  00000-0  00000-0 0  9993
2 37948  50.7759 292.3429 0079006 217.4739 142.8504  1.00268744 36186
BEIDOU 11 (C05)         
1 38091U 12008A   21276.88090333  .00000056  00000-0  00000-0 0  9995
2 38091   1.7823  70.0464 0003030 324.5938 353.9797  1.00272235 35255
BEIDOU 12 (C11)         
1 38250U 12018A   21277.50923618 -.00000078  00000-0  00000+0 0  9998
2 38250  56.7453   2.0144 0023147 244.8369  86.3930  1.86234389 64311
BEIDOU 13 (C12)         
1 38251U 12018B   21276.81261944 -.00000080  00000-0  00000-0 0  9993
2 38251  56.6673   1.3800 0013989 243.7747  24.7369  1.86234064 64308
BEIDOU 15 (C14)         
1 38775U 12050B   21277.44147450  .00000078  00000-0  00000+0 0  9990
2 38775  55.2583 120.3090 0012525 328.7212 198.6560  1.86231308 61694
BEIDOU 16 (C02)         
1 38953U 12059A   21277.54285461 -.00000178  00000-0  00000+0 0  9995
2 38953   1.3551  84.1361 0009248 282.3323 286.5214  1.00273936 32839
BEIDOU 17 (C31)         
1 40549U 15019A   21277.52641324 -.00000127  00000-0  00000+0 0  9994
2 40549  52.3150 315.7304 0038313 189.3586 150.1361  1.00297644 23860
BEIDOU 18 (C57)         
1 40748U 15037A   21277.12691691 -.00000079  00000-0  00000+0 0  9999
2 40748  55.9254   0.3917 0001238  37.2864 351.7338  1.86233479 42143
BEIDOU 19 (C58)         
1 40749U 15037B   21276.74216911 -.00000080  00000-0  00000-0 0  9998
2 40749  55.9289   0.3918 0003108 291.0140 335.6609  1.86232122 42122
BEIDOU 20 (C18)         
1 40938U 15053A   21276.43986287 -.00000089  00000-0  00000-0 0  9991
2 40938  51.9017 278.8240 0048064 196.2033 150.2866  1.00259149 22122
BEIDOU IGSO-6 (C13)     
1 41434U 16021A   21277.55193426 -.00000126  00000-0  00000+0 0  9999
2 41434  57.7255  55.5012 0043308 210.5235  39.9479  1.00291492 20262
BEIDOU-2 G7 (C03)       
1 41586U 16037A   21276.90472324 -.00000355  00000-0  00000+0 0  9993
2 41586   1.9292  69.1522 0007451  12.5044   7.3896  1.00267569 19567
BEIDOU-3 M1 (C19)       
1 43001U 17069A   21277.22948356  .00000078  00000-0  00000+0 0  9993
2 43001  55.4118 120.2824 0007841 294.8537 246.4229  1.86231774 26625
BEIDOU-3 M2 (C20)       
1 43002U 17069B   21277.36484394  .00000078  00000-0  00000+0 0  9996
2 43002  55.4112 120.3135 0006701 323.3759 351.9643  1.86231385 26613
BEIDOU-3 M3 (C27)       
1 43107U 18003A   21276.76008392 -.00000081  00000-0  00000-0 0  9990
2 43107  55.3709   1.4347 0003895  64.4738  11.3314  1.86232551 25375
BEIDOU-3 M4 (C28)       
1 43108U 18003B   21277.01151987 -.00000081  00000-0  00000+0 0  9998
2 43108  55.3648   1.4150 0003720 229.1981  60.3669  1.86232629 25370
BEIDOU-3 M5 (C21)       
1 43207U 18018A   21275.95301597  .00000069  00000-0  00000+0 0  9994
2 43207  55.3707 120.4478 0005092 357.8053   2.2901  1.86231779 24743
BEIDOU-3 M6 (C22)       
1 43208U 18018B   21276.01974628  .00000070  00000-0  00000-0 0  9997
2 43208  55.3699 120.4507 0005840 311.2658  48.7810  1.86231796 24746
BEIDOU-3 M7 (C29)       
1 43245U 18029A   21277.36719455 -.00000078  00000-0  00000+0 0  9992
2 43245  55.2971 359.2000 0001088 199.6034 193.5114  1.86232914 23923
BEIDOU-3 M8 (C30)       
1 43246U 18029B   21277.29235209 -.00000078  00000-0  10000-3 0  9990
2 43246  55.2937 359.2320 0002924 343.0708  46.1658  1.86233273 23918
BEIDOU IGSO-7 (C16)     
1 43539U 18057A   21276.88750257 -.00000150  00000-0  00000-0 0  9992
2 43539  55.0623 177.9867 0041176 224.0271  42.5728  1.00288886 11932
BEIDOU-3 M9 (C23)       
1 43581U 18062A   21277.28916955  .00000011  00000-0  00000+0 0  9993
2 43581  54.3632 240.8623 0006043 275.3938 322.0177  1.86231873 21656
BEIDOU-3 M10 (C24)      
1 43582U 18062B   21276.61817983  .00000012  00000-0  00000-0 0  9993
2 43582  54.3635 240.8750 0005599 333.3374 265.6625  1.86232283 21640
BEIDOU-3 M11 (C25)      
1 43602U 18067A   21277.09192316  .00000010  00000-0  00000+0 0  9997
2 43602  54.4409 239.4510 0006973 352.3862 246.2344  1.86231565 21141
BEIDOU-3 M12 (C26)      
1 43603U 18067B   21277.52258569  .00000010  00000-0  00000+0 0  9999
2 43603  54.4375 239.4033 0004547 336.9769 100.8248  1.86231634 21171
BEIDOU-3 M13 (C32)      
1 43622U 18072A   21277.29059105  .00000078  00000-0  00000+0 0  9999
2 43622  55.3366 119.9665 0004498 291.5305  20.7175  1.86231885 20673
BEIDOU-3 M14 (C33)      
1 43623U 18072B   21276.62183469  .00000074  00000-0  00000-0 0  9994
2 43623  55.3381 119.9807 0003339 334.7023 339.4080  1.86231885 20663
BEIDOU-3 M15 (C34)      
1 43647U 18078A   21276.99750383 -.00000079  00000-0  10000-3 0  9991
2 43647  55.1909 359.3927 0005153 353.7505 107.4586  1.86233107 20188
BEIDOU-3 M16 (C35)      
1 43648U 18078B   21276.87886892 -.00000080  00000-0  00000-0 0  9992
2 43648  55.1868 359.4027 0003140  14.0991 275.8308  1.86232341 20197
BEIDOU-3 G1 (C59)       
1 43683U 18085A   21276.89712594 -.00000282  00000-0  00000-0 0  9992
2 43683   0.9157 212.4711 0004802  30.2050 233.1249  1.00268713 10834
BEIDOU-3 M17 (C36)      
1 43706U 18093A   21277.40353994  .00000011  00000-0  00000+0 0  9998
2 43706  54.4438 240.7248 0011484 272.7284 266.2705  1.86231860 19550
BEIDOU-3 M18 (C37)      
1 43707U 18093B   21277.36311299  .00000011  00000-0  00000+0 0  9996
2 43707  54.4449 240.7170 0009979 293.5092 309.3470  1.86232194 19550
BEIDOU-3 IGSO-1 (C38)   
1 44204U 19023A   21276.90251781 -.00000188  00000-0  00000-0 0  9998
2 44204  56.1823  55.7421 0022582 185.2066 215.0346  1.00288684  9144
BEIDOU-2 G8             
1 44231U 19027A   21276.89799810 -.00000250  00000-0  00000-0 0  9990
2 44231   0.3151  39.0460 0007308 163.8026 277.7857  1.00269510  8850
BEIDOU-3 IGSO-2 (C39)   
1 44337U 19035A   21276.92610344 -.00000148  00000-0  00000-0 0  9990
2 44337  55.0974 174.0193 0020203 181.6956 109.9936  1.00279502  8473
BEIDOU-3 M23 (C45)      
1 44542U 19061A   21276.85321346  .00000012  00000-0  10000-3 0  9993
2 44542  54.6697 240.8350 0009240 320.7745 252.8987  1.86231534 13809
BEIDOU-3 M24 (C46)      
1 44543U 19061B   21277.01957172  .00000015  00000-0  14065+2 0  9991
2 44543  54.6685 240.8001 0006900 308.0513 288.1538  1.86232031 13809
BEIDOU-3 IGSO-3         
1 44709U 19073A   21276.96480720 -.00000134  00000-0  00000+0 0  9996
2 44709  57.6733 299.0422 0020399 185.2898 355.5359  1.00284364  7234
BEIDOU-3 M21            
1 44793U 19078A   21276.37395940 -.00000082  00000-0  10000-3 0  9995
2 44793  55.0405 359.4659 0005003   3.1965 354.2486  1.86232623 12650
BEIDOU-3 M22            
1 44794U 19078B   21276.48696051 -.00000081  00000-0  00000+0 0  9999
2 44794  55.0140 359.4599 0002986 357.0563 347.3338  1.86233134 12659
BEIDOU-3 M19            
1 44864U 19090A   21277.22914522  .00000077  00000-0  00000+0 0  9994
2 44864  55.2714 120.1940 0014520 266.4697  50.1110  1.86231963 12258
BEIDOU-3 M20            
1 44865U 19090B   21277.08937333  .00000077  00000-0  00000+0 0  9994
2 44865  55.2739 120.2291 0012966 283.3685  29.4061  1.86231930 12228
BEIDOU-3 G2             
1 45344U 20017A   21276.88517703 -.00000146  00000-0  00000-0 0  9999
2 45344   2.3016 340.5168 0002911 179.6243 251.3757  1.00272510  6055
BEIDOU-3 G3             
1 45807U 20040A   21276.90472324 -.00000360  00000-0  00000-0 0  9999
2 45807   2.0370 299.0388 0010304 336.8216 173.2391  1.00270920  4869
